{
    "links": {
        "self": "http://www.neowsapp.com/rest/v1/neo/3621642?api_key=iIulBulltgU6a56xZRHN4H3l9WmuAYTsLGpBGhQ2"
    },
    "id": "3621642",
    "neo_reference_id": "3621642",
    "name": "(2012 YR1)",
    "designation": "2012 YR1",
    "nasa_jpl_url": "http://ssd.jpl.nasa.gov/sbdb.cgi?sstr=3621642",
    "absolute_magnitude_h": 26.6,
    "estimated_diameter": {
        "kilometers": {
            "estimated_diameter_min": 0.0127219879,
            "estimated_diameter_max": 0.0284472297
        },
        "meters": {
            "estimated_diameter_min": 12.7219878539,
            "estimated_diameter_max": 28.4472296503
        },
        "miles": {
            "estimated_diameter_min": 0.0079050743,
            "estimated_diameter_max": 0.0176762835
        },
        "feet": {
            "estimated_diameter_min": 41.7388066307,
            "estimated_diameter_max": 93.330808926
        }
    },
    "is_potentially_hazardous_asteroid": false,
    "close_approach_data": [
        {
            "close_approach_date": "2012-12-19",
            "close_approach_date_full": "2012-Dec-19 10:17",
            "epoch_date_close_approach": 1355912220000,
            "relative_velocity": {
                "kilometers_per_second": "8.4972821623",
                "kilometers_per_hour": "30590.2157844329",
                "miles_per_hour": "19007.5704689439"
            },
            "miss_distance": {
                "astronomical": "0.0149890884",
                "lunar": "5.8307553876",
                "kilometers": "2242335.697881708",
                "miles": "1393322.7934272504"
            },
            "orbiting_body": "Earth"
        },
        {
            "close_approach_date": "2015-10-04",
            "close_approach_date_full": "2015-Oct-04 19:34",
            "epoch_date_close_approach": 1443987240000,
            "relative_velocity": {
                "kilometers_per_second": "15.0923232925",
                "kilometers_per_hour": "54332.3638529798",
                "miles_per_hour": "33760.0179729807"
            },
            "miss_distance": {
                "astronomical": "0.2262759089",
                "lunar": "88.0213285621",
                "kilometers": "33850394.003754043",
                "miles": "21033659.4901820734"
            },
            "orbiting_body": "Earth"
        },
        {
            "close_approach_date": "2062-09-19",
            "close_approach_date_full": "2062-Sep-19 17:36",
            "epoch_date_close_approach": 2925912960000,
            "relative_velocity": {
                "kilometers_per_second": "22.8373713741",
                "kilometers_per_hour": "82214.5369466304",
                "miles_per_hour": "51084.9160266438"
            },
            "miss_distance": {
                "astronomical": "0.4923945559",
                "lunar": "191.5414822451",
                "kilometers": "73661176.762235933",
                "miles": "45770932.8136965554"
            },
            "orbiting_body": "Earth"
        }
    ],
    "orbital_data": {
        "orbit_id": "9",
        "orbit_determination_date": "2017-04-06 08:47:32",
        "first_observation_date": "2012-12-20",
        "last_observation_date": "2013-01-12",
        "data_arc_in_days": 23,
        "observations_used": 30,
        "orbit_uncertainty": "7",
        "minimum_orbit_intersection": ".00103273",
        "jupiter_tisserand_invariant": "3.604",
        "epoch_osculation": "2459000.5",
        "eccentricity": ".5288302324409505",
        "semi_major_axis": "2.048583897898466",
        "inclination": "2.505770629336276",
        "ascending_node_longitude": "81.17416635509811",
        "orbital_period": "1070.974324153473",
        "perihelion_distance": ".9652307989980318",
        "perihelion_argument": "342.3017628139332",
        "aphelion_distance": "3.1319369967989",
        "perihelion_time": "2459475.051498791918",
        "mean_anomaly": "200.4830669492231",
        "mean_motion": ".336142512365601",
        "equinox": "J2000",
        "orbit_class": {
            "orbit_class_type": "APO",
            "orbit_class_description": "Near-Earth asteroid orbits which cross the Earth’s orbit similar to that of 1862 Apollo",
            "orbit_class_range": "a (semi-major axis) > 1.0 AU; q (perihelion) < 1.017 AU"
        }
    },
    "is_sentry_object": false
}